H1 CPF 01  gfz 2022 03 23 13  5822 terrasarx 
H2 0702601  6201 31698    2022 03 23 12 59 42 2022 03 28 00 00 42   120 1 1  0 0 0
H9
10 0 59665  15822.000000  0    2631870.803   2059516.445   6013394.745
10 0 59665  15942.000000  0    3383272.456   2293526.084   5535010.304
10 0 59665  16062.000000  0    4079223.228   2474814.607   4959272.098
10 0 59665  16182.000000  0    4706600.420   2601284.549   4296272.977
10 0 59665  16302.000000  0    5253446.463   2672015.717   3557653.496
10 0 59665  16422.000000  0    5709207.586   2687262.011   2756398.516
10 0 59665  16542.000000  0    6064943.374   2648422.493   1906607.685
10 0 59665  16662.000000  0    6313510.720   2557989.902   1023244.999
10 0 59665  16782.000000  0    6449713.247   2419474.957    121868.301
10 0 59665  16902.000000  0    6470411.159   2237309.047   -781653.992
10 0 59665  17022.000000  0    6374587.927   2016727.350  -1671430.969
10 0 59665  17142.000000  0    6163377.438   1763637.391  -2531834.760
10 0 59665  17262.000000  0    5840047.981   1484474.588  -3347782.702
10 0 59665  17382.000000  0    5409942.351   1186048.284  -4105005.350
10 0 59665  17502.000000  0    4880377.207    875383.414  -4790296.113
10 0 59665  17622.000000  0    4260505.721    559562.317  -5391736.453
10 0 59665  17742.000000  0    3561148.997    245569.841  -5898895.026
10 0 59665  17862.000000  0    2794598.850    -59854.725  -6302998.964
10 0 59665  17982.000000  0    1974395.820   -350356.476  -6597074.270
10 0 59665  18102.000000  0    1115089.413   -620091.950  -6776054.718
10 0 59665  18222.000000  0     231982.098   -863842.416  -6836861.290
10 0 59665  18342.000000  0    -659139.230  -1077110.921  -6778448.128
10 0 59665  18462.000000  0   -1542278.110  -1256202.664  -6601818.483
10 0 59665  18582.000000  0   -2401509.453  -1398287.685  -6310009.817
10 0 59665  18702.000000  0   -3221260.273  -1501444.698  -5908045.963
10 0 59665  18822.000000  0   -3986586.691  -1564686.100  -5402860.757
10 0 59665  18942.000000  0   -4683447.225  -1587963.785  -4803190.538
10 0 59665  19062.000000  0   -5298964.055  -1572154.769  -4119433.985
10 0 59665  19182.000000  0   -5821668.070  -1519027.105  -3363482.561
10 0 59665  19302.000000  0   -6241723.230  -1431186.545  -2548521.490
10 0 59665  19422.000000  0   -6551123.350  -1312004.219  -1688803.845
10 0 59665  19542.000000  0   -6743856.648  -1165527.119   -799401.920
10 0 59665  19662.000000  0   -6816033.666   -996373.070    104060.583
10 0 59665  19782.000000  0   -6765973.318   -809611.694   1005689.668
10 0 59665  19902.000000  0   -6594244.958   -610636.131   1889608.924
10 0 59665  20022.000000  0   -6303664.943   -405028.073   2740248.283
10 0 59665  20142.000000  0   -5899247.894   -198419.226   3542626.960
10 0 59665  20262.000000  0   -5388113.105      3647.157   4282624.330
10 0 59665  20382.000000  0   -4779349.202    195850.128   4947231.965
10 0 59665  20502.000000  0   -4083842.189    373218.009   5524781.842
10 0 59665  20622.000000  0   -3314071.743    531245.578   6005148.755
10 0 59665  20742.000000  0   -2483878.349    665997.949   6379923.653
10 0 59665  20862.000000  0   -1608207.972    774199.477   6642555.326
10 0 59665  20982.000000  0    -702838.001    853307.060   6788458.890
10 0 59665  21102.000000  0     215908.375    901565.347   6815089.612
10 0 59665  21222.000000  0    1131455.618    918043.319   6721984.035
10 0 59665  21342.000000  0    2027273.600    902652.281   6510767.666
10 0 59665  21462.000000  0    2887174.984    856144.332   6185128.613
10 0 59665  21582.000000  0    3695608.616    780091.379   5750757.994
10 0 59665  21702.000000  0    4437943.642    676845.340   5215255.392
10 0 59665  21822.000000  0    5100738.493    549479.569   4588002.432
10 0 59665  21942.000000  0    5671992.516    401712.529   3880005.005
10 0 59665  22062.000000  0    6141373.616    237816.595   3103703.115
10 0 59665  22182.000000  0    6500415.138     62513.168   2272751.910
10 0 59665  22302.000000  0    6742677.389   -119145.403   1401779.753
10 0 59665  22422.000000  0    6863871.906   -301902.045    506125.844
10 0 59665  22542.000000  0    6861942.580   -480426.363   -398437.417
10 0 59665  22662.000000  0    6737101.705   -649449.153  -1295991.797
10 0 59665  22782.000000  0    6491819.598   -803895.661  -2170761.979
10 0 59665  22902.000000  0    6130768.840   -939014.096  -3007400.214
10 0 59665  23022.000000  0    5660725.283  -1050496.437  -3791259.968
10 0 59665  23142.000000  0    5090428.850  -1134588.184  -4508653.510
10 0 59665  23262.000000  0    4430408.632  -1188184.234  -5147087.876
10 0 59665  23382.000000  0    3692777.787  -1208909.863  -5695476.373
10 0 59665  23502.000000  0    2891001.845  -1195185.360  -6144322.145
10 0 59665  23622.000000  0    2039647.189  -1146271.940  -6485871.373
10 0 59665  23742.000000  0    1154114.680  -1062298.331  -6714236.151
10 0 59665  23862.000000  0     250362.860   -944269.717  -6825485.814
10 0 59665  23982.000000  0    -655375.181   -794057.249  -6817707.221
10 0 59665  24102.000000  0   -1546876.432   -614368.963  -6691033.883
10 0 59665  24222.000000  0   -2408212.318   -408701.977  -6447643.972
10 0 59665  24342.000000  0   -3224026.689   -181277.107  -6091725.618
10 0 59665  24462.000000  0   -3979804.212     63043.310  -5629413.425
10 0 59665  24582.000000  0   -4662128.918    318853.661  -5068693.628
10 0 59665  24702.000000  0   -5258924.951    580317.098  -4419277.400
10 0 59665  24822.000000  0   -5759678.174    841290.641  -3692444.873
10 0 59665  24942.000000  0   -6155632.220   1095461.290  -2900858.068
10 0 59665  25062.000000  0   -6439953.952   1336489.426  -2058346.146
10 0 59665  25182.000000  0   -6607864.110   1558156.099  -1179666.171
10 0 59665  25302.000000  0   -6656730.229   1754511.968   -280242.612
10 0 59665  25422.000000  0   -6586116.042   1920021.942    624110.059
10 0 59665  25542.000000  0   -6397786.536   2049703.224   1517472.628
10 0 59665  25662.000000  0   -6095669.574   2139253.626   2384110.108
10 0 59665  25782.000000  0   -5685773.325   2185165.942   3208757.998
10 0 59665  25902.000000  0   -5176061.850   2184824.634   3976899.055
10 0 59665  26022.000000  0   -4576292.025   2136582.949   4675023.541
10 0 59665  26142.000000  0   -3897817.816   2039819.241   5290867.768
10 0 59665  26262.000000  0   -3153367.329   1894971.403   5813628.034
10 0 59665  26382.000000  0   -2356796.355   1703549.085   6234147.745
10 0 59665  26502.000000  0   -1522822.953   1468122.317   6545072.629
10 0 59665  26622.000000  0    -666750.741   1192287.342   6740972.381
10 0 59665  26742.000000  0     195813.051    880611.210   6818428.505
10 0 59665  26862.000000  0    1049241.248    538555.593   6776090.013
10 0 59665  26982.000000  0    1878168.553    172381.344   6614695.334
10 0 59665  27102.000000  0    2667766.895   -210965.212   6337060.846
10 0 59665  27222.000000  0    3404011.134   -603983.085   5948036.066
10 0 59665  27342.000000  0    4073930.926   -998761.602   5454423.862
10 0 59665  27462.000000  0    4665843.409  -1387138.277   4864867.276
10 0 59665  27582.000000  0    5169563.092  -1760866.001   4189704.319
10 0 59665  27702.000000  0    5576586.009  -2111786.038   3440791.353
10 0 59665  27822.000000  0    5880242.402  -2432004.493   2631296.250
10 0 59665  27942.000000  0    6075813.378  -2714067.220   1775465.568
10 0 59665  28062.000000  0    6160610.307  -2951128.496    888370.672
10 0 59665  28182.000000  0    6134014.246  -3137110.367    -14364.751
10 0 59665  28302.000000  0    5997472.529  -3266847.269   -916848.011
10 0 59665  28422.000000  0    5754453.973  -3336212.761  -1803207.221
10 0 59665  28542.000000  0    5410361.680  -3342224.068  -2657878.313
10 0 59665  28662.000000  0    4972409.672  -3283123.382  -3465883.812
10 0 59665  28782.000000  0    4449464.663  -3158433.644  -4213098.059
10 0 59665  28902.000000  0    3851858.261  -2968988.362  -4886493.472
10 0 59665  29022.000000  0    3191173.608  -2716933.629  -5474362.934
10 0 59665  29142.000000  0    2480014.251  -2405704.124  -5966513.804
10 0 59665  29262.000000  0    1731761.160  -2039975.510  -6354434.380
10 0 59665  29382.000000  0     960319.629  -1625591.863  -6631431.882
10 0 59665  29502.000000  0     179861.598  -1169469.862  -6792736.802
10 0 59665  29622.000000  0    -595430.574   -679483.670  -6835575.651
10 0 59665  29742.000000  0   -1351615.691   -164331.389  -6759212.877
10 0 59665  29862.000000  0   -2075238.834    366615.820  -6564961.862
10 0 59665  29982.000000  0   -2753565.087    903479.684  -6256164.023
10 0 59665  30102.000000  0   -3374799.019   1436053.612  -5838137.855
10 0 59665  30222.000000  0   -3928288.761   1953992.083  -5318097.912
10 0 59665  30342.000000  0   -4404712.028   2447008.579  -4705042.157
10 0 59665  30462.000000  0   -4796238.726   2905078.900  -4009606.659
10 0 59665  30582.000000  0   -5096666.566   3318644.088  -3243890.668
10 0 59665  30702.000000  0   -5301528.491   3678810.758  -2421254.529
10 0 59665  30822.000000  0   -5408167.200   3977543.913  -1556090.356
10 0 59665  30942.000000  0   -5415775.463   4207846.474   -663570.538
10 0 59665  31062.000000  0   -5325399.813   4363921.314    240622.113
10 0 59665  31182.000000  0   -5139906.884   4441311.847   1140577.346
10 0 59665  31302.000000  0   -4863911.325   4437014.950   2020447.099
10 0 59665  31422.000000  0   -4503668.318   4349564.515   2864733.533
10 0 59665  31542.000000  0   -4066933.346   4179084.592   3658569.718
10 0 59665  31662.000000  0   -3562793.220   3927309.314   4387987.378
10 0 59665  31782.000000  0   -3001473.496   3597569.863   5040165.728
10 0 59665  31902.000000  0   -2394126.097   3194748.998   5603657.399
10 0 59665  32022.000000  0   -1752602.610   2725204.865   6068586.789
10 0 59665  32142.000000  0   -1089218.394   2196665.752   6426818.218
10 0 59665  32262.000000  0    -416513.640   1618098.108   6672090.501
99
